[{"OBJECT_NAME":"AMOS-17","OBJECT_ID":"2019-050A","EPOCH":"2026-04-27T05:12:38.611584","MEAN_MOTION":1.00269569,"ECCENTRICITY":0.00014098,"INCLINATION":0.0154,"RA_OF_ASC_NODE":329.6214,"ARG_OF_PERICENTER":68.1223,"MEAN_ANOMALY":272.6242,"EPHEMERIS_TYPE":0,"CLASSIFICATION_TYPE":"U","NORAD_CAT_ID":44479,"ELEMENT_SET_NO":999,"REV_AT_EPOCH":2467,"BSTAR":0,"MEAN_MOTION_DOT":9.9e-7,"MEAN_MOTION_DDOT":0}]
